STARLINK-37156          
1 68263U 26055B   26085.91668981 -.00885053  26340-3 -17865-2 0  9990
2 68263  53.1589 251.5211 0000759  54.4518 122.9759 15.98926949  2406
STARLINK-37163          
1 68264U 26055C   26085.91668981 -.00885110  26413-3 -17617-2 0  9991
2 68264  53.1588 251.5109 0000710  46.7183 135.3370 15.99174910  2402
STARLINK-37133          
1 68265U 26055D   26085.91668981 -.00885132  26380-3 -17739-2 0  9994
2 68265  53.1589 251.5160 0000617  53.4904 126.3110 15.99054149  2406
STARLINK-37042          
1 68266U 26055E   26085.91668981 -.00888880  26662-3 -17532-2 0  9992
2 68266  53.1588 251.5052 0000705  45.2047 139.8110 15.99336003  2402
STARLINK-37103          
1 68267U 26055F   26085.91668981 -.00890308  26778-3 -17426-2 0  9991
2 68267  53.1590 251.4997 0000730  49.0566 138.4943 15.99471638  2402
STARLINK-36999          
1 68268U 26055G   26085.91668981 -.00889023  26744-3 -17279-2 0  9993
2 68268  53.1590 251.4951 0000713  49.0876 140.7366 15.99595135  2402
STARLINK-36962          
1 68269U 26055H   26085.91668981 -.00893663  27035-3 -17236-2 0  9996
2 68269  53.1589 251.4900 0000720  54.4194 137.8171 15.99730900  2408
STARLINK-37028          
1 68270U 26055J   26085.91668981 -.00900750  27525-3 -17035-2 0  9995
2 68270  53.1589 251.4731 0000633  48.1784 151.9923 16.00075673  2404
STARLINK-37029          
1 68271U 26055K   26085.91668981 -.00904192  27674-3 -17234-2 0  9996
2 68271  53.1589 251.4787 0000684  58.0675 139.6213 15.99939567  2404
STARLINK-36974          
1 68272U 26055L   26085.91668981 -.00903068  27705-3 -16909-2 0  9991
2 68272  53.1589 251.4669 0000557  53.9858 149.2972 16.00250473  2404
STARLINK-37019          
1 68273U 26055M   26085.91668981 -.00906329  27923-3 -16851-2 0  9993
2 68273  53.1588 251.4619 0000719  47.6241 157.7829 16.00373116  2400
STARLINK-37129          
1 68274U 26055N   26085.91668981 -.00909055  28119-3 -16764-2 0  9994
2 68274  53.1588 251.4572 0000681  49.6652 158.2135 16.00516195  2407
