CCSDS_OMM_VERS = 2.0
CREATION_DATE  = 
ORIGINATOR     = 

OBJECT_NAME    = STARLINK-37156
OBJECT_ID      = 2026-055B
CENTER_NAME    = EARTH
REF_FRAME      = TEME
TIME_SYSTEM    = UTC
MEAN_ELEMENT_THEORY = SGP/SGP4

EPOCH          = 2026-03-26T22:00:01.999584
MEAN_MOTION    = 15.98926949
ECCENTRICITY   = .00007593
INCLINATION    = 53.1589
RA_OF_ASC_NODE = 251.5211
ARG_OF_PERICENTER = 54.4518
MEAN_ANOMALY   = 122.9759

EPHEMERIS_TYPE = 0
CLASSIFICATION_TYPE = U
NORAD_CAT_ID   = 68263
ELEMENT_SET_NO = 999
REV_AT_EPOCH   = 240
BSTAR          = -.178649E-2
MEAN_MOTION_DOT = -.885053E-2
MEAN_MOTION_DDOT = .26339928E-3

CCSDS_OMM_VERS = 2.0
CREATION_DATE  = 
ORIGINATOR     = 

OBJECT_NAME    = STARLINK-37163
OBJECT_ID      = 2026-055C
CENTER_NAME    = EARTH
REF_FRAME      = TEME
TIME_SYSTEM    = UTC
MEAN_ELEMENT_THEORY = SGP/SGP4

EPOCH          = 2026-03-26T22:00:01.999584
MEAN_MOTION    = 15.99174910
ECCENTRICITY   = .00007102
INCLINATION    = 53.1588
RA_OF_ASC_NODE = 251.5109
ARG_OF_PERICENTER = 46.7183
MEAN_ANOMALY   = 135.3370

EPHEMERIS_TYPE = 0
CLASSIFICATION_TYPE = U
NORAD_CAT_ID   = 68264
ELEMENT_SET_NO = 999
REV_AT_EPOCH   = 240
BSTAR          = -.17617327E-2
MEAN_MOTION_DOT = -.88511E-2
MEAN_MOTION_DDOT = .26412821E-3

CCSDS_OMM_VERS = 2.0
CREATION_DATE  = 
ORIGINATOR     = 

OBJECT_NAME    = STARLINK-37133
OBJECT_ID      = 2026-055D
CENTER_NAME    = EARTH
REF_FRAME      = TEME
TIME_SYSTEM    = UTC
MEAN_ELEMENT_THEORY = SGP/SGP4

EPOCH          = 2026-03-26T22:00:01.999584
MEAN_MOTION    = 15.99054149
ECCENTRICITY   = .00006177
INCLINATION    = 53.1589
RA_OF_ASC_NODE = 251.5160
ARG_OF_PERICENTER = 53.4904
MEAN_ANOMALY   = 126.3110

EPHEMERIS_TYPE = 0
CLASSIFICATION_TYPE = U
NORAD_CAT_ID   = 68265
ELEMENT_SET_NO = 999
REV_AT_EPOCH   = 240
BSTAR          = -.17738721E-2
MEAN_MOTION_DOT = -.885132E-2
MEAN_MOTION_DDOT = .2637991E-3

CCSDS_OMM_VERS = 2.0
CREATION_DATE  = 
ORIGINATOR     = 

OBJECT_NAME    = STARLINK-37042
OBJECT_ID      = 2026-055E
CENTER_NAME    = EARTH
REF_FRAME      = TEME
TIME_SYSTEM    = UTC
MEAN_ELEMENT_THEORY = SGP/SGP4

EPOCH          = 2026-03-26T22:00:01.999584
MEAN_MOTION    = 15.99336003
ECCENTRICITY   = .00007058
INCLINATION    = 53.1588
RA_OF_ASC_NODE = 251.5052
ARG_OF_PERICENTER = 45.2047
MEAN_ANOMALY   = 139.8110

EPHEMERIS_TYPE = 0
CLASSIFICATION_TYPE = U
NORAD_CAT_ID   = 68266
ELEMENT_SET_NO = 999
REV_AT_EPOCH   = 240
BSTAR          = -.17532224E-2
MEAN_MOTION_DOT = -.88888E-2
MEAN_MOTION_DDOT = .26661745E-3

CCSDS_OMM_VERS = 2.0
CREATION_DATE  = 
ORIGINATOR     = 

OBJECT_NAME    = STARLINK-37103
OBJECT_ID      = 2026-055F
CENTER_NAME    = EARTH
REF_FRAME      = TEME
TIME_SYSTEM    = UTC
MEAN_ELEMENT_THEORY = SGP/SGP4

EPOCH          = 2026-03-26T22:00:01.999584
MEAN_MOTION    = 15.99471638
ECCENTRICITY   = .00007308
INCLINATION    = 53.1590
RA_OF_ASC_NODE = 251.4997
ARG_OF_PERICENTER = 49.0566
MEAN_ANOMALY   = 138.4943

EPHEMERIS_TYPE = 0
CLASSIFICATION_TYPE = U
NORAD_CAT_ID   = 68267
ELEMENT_SET_NO = 999
REV_AT_EPOCH   = 240
BSTAR          = -.1742585E-2
MEAN_MOTION_DOT = -.890308E-2
MEAN_MOTION_DDOT = .26777923E-3

CCSDS_OMM_VERS = 2.0
CREATION_DATE  = 
ORIGINATOR     = 

OBJECT_NAME    = STARLINK-36999
OBJECT_ID      = 2026-055G
CENTER_NAME    = EARTH
REF_FRAME      = TEME
TIME_SYSTEM    = UTC
MEAN_ELEMENT_THEORY = SGP/SGP4

EPOCH          = 2026-03-26T22:00:01.999584
MEAN_MOTION    = 15.99595135
ECCENTRICITY   = .00007138
INCLINATION    = 53.1590
RA_OF_ASC_NODE = 251.4951
ARG_OF_PERICENTER = 49.0876
MEAN_ANOMALY   = 140.7366

EPHEMERIS_TYPE = 0
CLASSIFICATION_TYPE = U
NORAD_CAT_ID   = 68268
ELEMENT_SET_NO = 999
REV_AT_EPOCH   = 240
BSTAR          = -.17278611E-2
MEAN_MOTION_DOT = -.889023E-2
MEAN_MOTION_DDOT = .26743792E-3

CCSDS_OMM_VERS = 2.0
CREATION_DATE  = 
ORIGINATOR     = 

OBJECT_NAME    = STARLINK-36962
OBJECT_ID      = 2026-055H
CENTER_NAME    = EARTH
REF_FRAME      = TEME
TIME_SYSTEM    = UTC
MEAN_ELEMENT_THEORY = SGP/SGP4

EPOCH          = 2026-03-26T22:00:01.999584
MEAN_MOTION    = 15.99730900
ECCENTRICITY   = .00007201
INCLINATION    = 53.1589
RA_OF_ASC_NODE = 251.4900
ARG_OF_PERICENTER = 54.4194
MEAN_ANOMALY   = 137.8171

EPHEMERIS_TYPE = 0
CLASSIFICATION_TYPE = U
NORAD_CAT_ID   = 68269
ELEMENT_SET_NO = 999
REV_AT_EPOCH   = 240
BSTAR          = -.17235796E-2
MEAN_MOTION_DOT = -.893663E-2
MEAN_MOTION_DDOT = .2703531E-3

CCSDS_OMM_VERS = 2.0
CREATION_DATE  = 
ORIGINATOR     = 

OBJECT_NAME    = STARLINK-37028
OBJECT_ID      = 2026-055J
CENTER_NAME    = EARTH
REF_FRAME      = TEME
TIME_SYSTEM    = UTC
MEAN_ELEMENT_THEORY = SGP/SGP4

EPOCH          = 2026-03-26T22:00:01.999584
MEAN_MOTION    = 16.00075673
ECCENTRICITY   = .0000633
INCLINATION    = 53.1589
RA_OF_ASC_NODE = 251.4731
ARG_OF_PERICENTER = 48.1784
MEAN_ANOMALY   = 151.9923

EPHEMERIS_TYPE = 0
CLASSIFICATION_TYPE = U
NORAD_CAT_ID   = 68270
ELEMENT_SET_NO = 999
REV_AT_EPOCH   = 240
BSTAR          = -.17034856E-2
MEAN_MOTION_DOT = -.90075E-2
MEAN_MOTION_DDOT = .27525172E-3

CCSDS_OMM_VERS = 2.0
CREATION_DATE  = 
ORIGINATOR     = 

OBJECT_NAME    = STARLINK-37029
OBJECT_ID      = 2026-055K
CENTER_NAME    = EARTH
REF_FRAME      = TEME
TIME_SYSTEM    = UTC
MEAN_ELEMENT_THEORY = SGP/SGP4

EPOCH          = 2026-03-26T22:00:01.999584
MEAN_MOTION    = 15.99939567
ECCENTRICITY   = .00006843
INCLINATION    = 53.1589
RA_OF_ASC_NODE = 251.4787
ARG_OF_PERICENTER = 58.0675
MEAN_ANOMALY   = 139.6213

EPHEMERIS_TYPE = 0
CLASSIFICATION_TYPE = U
NORAD_CAT_ID   = 68271
ELEMENT_SET_NO = 999
REV_AT_EPOCH   = 240
BSTAR          = -.17234332E-2
MEAN_MOTION_DOT = -.904192E-2
MEAN_MOTION_DDOT = .27674359E-3

CCSDS_OMM_VERS = 2.0
CREATION_DATE  = 
ORIGINATOR     = 

OBJECT_NAME    = STARLINK-36974
OBJECT_ID      = 2026-055L
CENTER_NAME    = EARTH
REF_FRAME      = TEME
TIME_SYSTEM    = UTC
MEAN_ELEMENT_THEORY = SGP/SGP4

EPOCH          = 2026-03-26T22:00:01.999584
MEAN_MOTION    = 16.00250473
ECCENTRICITY   = .00005571
INCLINATION    = 53.1589
RA_OF_ASC_NODE = 251.4669
ARG_OF_PERICENTER = 53.9858
MEAN_ANOMALY   = 149.2972

EPHEMERIS_TYPE = 0
CLASSIFICATION_TYPE = U
NORAD_CAT_ID   = 68272
ELEMENT_SET_NO = 999
REV_AT_EPOCH   = 240
BSTAR          = -.16908838E-2
MEAN_MOTION_DOT = -.903068E-2
MEAN_MOTION_DDOT = .27705453E-3

CCSDS_OMM_VERS = 2.0
CREATION_DATE  = 
ORIGINATOR     = 

OBJECT_NAME    = STARLINK-37019
OBJECT_ID      = 2026-055M
CENTER_NAME    = EARTH
REF_FRAME      = TEME
TIME_SYSTEM    = UTC
MEAN_ELEMENT_THEORY = SGP/SGP4

EPOCH          = 2026-03-26T22:00:01.999584
MEAN_MOTION    = 16.00373116
ECCENTRICITY   = .00007196
INCLINATION    = 53.1588
RA_OF_ASC_NODE = 251.4619
ARG_OF_PERICENTER = 47.6241
MEAN_ANOMALY   = 157.7829

EPHEMERIS_TYPE = 0
CLASSIFICATION_TYPE = U
NORAD_CAT_ID   = 68273
ELEMENT_SET_NO = 999
REV_AT_EPOCH   = 240
BSTAR          = -.16851111E-2
MEAN_MOTION_DOT = -.906329E-2
MEAN_MOTION_DDOT = .27923209E-3

CCSDS_OMM_VERS = 2.0
CREATION_DATE  = 
ORIGINATOR     = 

OBJECT_NAME    = STARLINK-37129
OBJECT_ID      = 2026-055N
CENTER_NAME    = EARTH
REF_FRAME      = TEME
TIME_SYSTEM    = UTC
MEAN_ELEMENT_THEORY = SGP/SGP4

EPOCH          = 2026-03-26T22:00:01.999584
MEAN_MOTION    = 16.00516195
ECCENTRICITY   = .00006811
INCLINATION    = 53.1588
RA_OF_ASC_NODE = 251.4572
ARG_OF_PERICENTER = 49.6652
MEAN_ANOMALY   = 158.2135

EPHEMERIS_TYPE = 0
CLASSIFICATION_TYPE = U
NORAD_CAT_ID   = 68274
ELEMENT_SET_NO = 999
REV_AT_EPOCH   = 240
BSTAR          = -.16763699E-2
MEAN_MOTION_DOT = -.909055E-2
MEAN_MOTION_DDOT = .28118511E-3

